{
    "week": 293,
    "satellites": [
        {
            "Name": "BEIDOU-2 IGSO-1 (C06)",
            "Line1": "1 36828U 10036A   24325.50715106 -.00000071  00000+0  00000+0 0  9995",
            "Line2": "2 36828  54.2561 168.1479 0042681 205.9141 335.1695  1.00285712 52343",
            "SatelliteNumber": "36828",
            "Classification": "U",
            "LaunchYear": "10",
            "LaunchNumber": "036",
            "PieceOfLaunch": "A",
            "EpochYear": "24",
            "EpochDay": 325.50715106,
            "FirstDerivativeMeanMotion": -7.1e-07,
            "SecondDerivativeMeanMotion": "00000+0",
            "BSTAR": "00000+0",
            "SetNumber": "999",
            "Inclination": 54.2561,
            "RAAN": 168.1479,
            "Eccentricity": 0.0042681,
            "ArgumentOfPerigee": 205.9141,
            "MeanAnomaly": 335.1695,
            "MeanMotion": 1.00285712,
            "RevolutionNumber": "5234"
        },
        {
            "Name": "BEIDOU-2 G4 (C04)",
            "Line1": "1 37210U 10057A   24325.63802295 -.00000110  00000+0  00000+0 0  9998",
            "Line2": "2 37210   2.2256  70.0890 0009698 179.1764 200.5436  1.00272755 51547",
            "SatelliteNumber": "37210",
            "Classification": "U",
            "LaunchYear": "10",
            "LaunchNumber": "057",
            "PieceOfLaunch": "A",
            "EpochYear": "24",
            "EpochDay": 325.63802295,
            "FirstDerivativeMeanMotion": -1.1e-06,
            "SecondDerivativeMeanMotion": "00000+0",
            "BSTAR": "00000+0",
            "SetNumber": "999",
            "Inclination": 2.2256,
            "RAAN": 70.089,
            "Eccentricity": 0.0009698,
            "ArgumentOfPerigee": 179.1764,
            "MeanAnomaly": 200.5436,
            "MeanMotion": 1.00272755,
            "RevolutionNumber": "5154"
        },
        {
            "Name": "BEIDOU-2 IGSO-2 (C07)",
            "Line1": "1 37256U 10068A   24325.60716812 -.00000206  00000+0  00000+0 0  9992",
            "Line2": "2 37256  48.5936 278.9081 0038213 218.1361 247.0556  1.00252709 51049",
            "SatelliteNumber": "37256",
            "Classification": "U",
            "LaunchYear": "10",
            "LaunchNumber": "068",
            "PieceOfLaunch": "A",
            "EpochYear": "24",
            "EpochDay": 325.60716812,
            "FirstDerivativeMeanMotion": -2.06e-06,
            "SecondDerivativeMeanMotion": "00000+0",
            "BSTAR": "00000+0",
            "SetNumber": "999",
            "Inclination": 48.5936,
            "RAAN": 278.9081,
            "Eccentricity": 0.0038213,
            "ArgumentOfPerigee": 218.1361,
            "MeanAnomaly": 247.0556,
            "MeanMotion": 1.00252709,
            "RevolutionNumber": "5104"
        },
        {
            "Name": "BEIDOU-2 IGSO-3 (C08)",
            "Line1": "1 37384U 11013A   24325.65420056 -.00000199  00000+0  00000+0 0  9993",
            "Line2": "2 37384  61.5843  45.6080 0031652 180.6817 176.9714  1.00269535 49914",
            "SatelliteNumber": "37384",
            "Classification": "U",
            "LaunchYear": "11",
            "LaunchNumber": "013",
            "PieceOfLaunch": "A",
            "EpochYear": "24",
            "EpochDay": 325.65420056,
            "FirstDerivativeMeanMotion": -1.99e-06,
            "SecondDerivativeMeanMotion": "00000+0",
            "BSTAR": "00000+0",
            "SetNumber": "999",
            "Inclination": 61.5843,
            "RAAN": 45.608,
            "Eccentricity": 0.0031652,
            "ArgumentOfPerigee": 180.6817,
            "MeanAnomaly": 176.9714,
            "MeanMotion": 1.00269535,
            "RevolutionNumber": "4991"
        },
        {
            "Name": "BEIDOU-2 IGSO-4 (C09)",
            "Line1": "1 37763U 11038A   24325.54792069 -.00000015  00000+0  00000+0 0  9992",
            "Line2": "2 37763  54.5617 170.7958 0129657 228.5753 314.2752  1.00275323 48891",
            "SatelliteNumber": "37763",
            "Classification": "U",
            "LaunchYear": "11",
            "LaunchNumber": "038",
            "PieceOfLaunch": "A",
            "EpochYear": "24",
            "EpochDay": 325.54792069,
            "FirstDerivativeMeanMotion": -1.5e-07,
            "SecondDerivativeMeanMotion": "00000+0",
            "BSTAR": "00000+0",
            "SetNumber": "999",
            "Inclination": 54.5617,
            "RAAN": 170.7958,
            "Eccentricity": 0.0129657,
            "ArgumentOfPerigee": 228.5753,
            "MeanAnomaly": 314.2752,
            "MeanMotion": 1.00275323,
            "RevolutionNumber": "4889"
        },
        {
            "Name": "BEIDOU-2 IGSO-5 (C10)",
            "Line1": "1 37948U 11073A   24325.83925571 -.00000204  00000+0  00000+0 0  9994",
            "Line2": "2 37948  48.7283 278.6013 0101159 222.0370 315.7665  1.00257300 47658",
            "SatelliteNumber": "37948",
            "Classification": "U",
            "LaunchYear": "11",
            "LaunchNumber": "073",
            "PieceOfLaunch": "A",
            "EpochYear": "24",
            "EpochDay": 325.83925571,
            "FirstDerivativeMeanMotion": -2.04e-06,
            "SecondDerivativeMeanMotion": "00000+0",
            "BSTAR": "00000+0",
            "SetNumber": "999",
            "Inclination": 48.7283,
            "RAAN": 278.6013,
            "Eccentricity": 0.0101159,
            "ArgumentOfPerigee": 222.037,
            "MeanAnomaly": 315.7665,
            "MeanMotion": 1.002573,
            "RevolutionNumber": "4765"
        },
        {
            "Name": "BEIDOU-2 G5 (C05)",
            "Line1": "1 38091U 12008A   24325.09254292  .00000058  00000+0  00000+0 0  9992",
            "Line2": "2 38091   2.1442  70.8864 0011285 221.7303 219.1395  1.00266758 46616",
            "SatelliteNumber": "38091",
            "Classification": "U",
            "LaunchYear": "12",
            "LaunchNumber": "008",
            "PieceOfLaunch": "A",
            "EpochYear": "24",
            "EpochDay": 325.09254292,
            "FirstDerivativeMeanMotion": 5.8e-07,
            "SecondDerivativeMeanMotion": "00000+0",
            "BSTAR": "00000+0",
            "SetNumber": "999",
            "Inclination": 2.1442,
            "RAAN": 70.8864,
            "Eccentricity": 0.0011285,
            "ArgumentOfPerigee": 221.7303,
            "MeanAnomaly": 219.1395,
            "MeanMotion": 1.00266758,
            "RevolutionNumber": "4661"
        },
        {
            "Name": "BEIDOU-2 M3 (C11)",
            "Line1": "1 38250U 12018A   24325.18585057 -.00000076  00000+0  00000+0 0  9997",
            "Line2": "2 38250  56.2287 324.1413 0025513 266.6332  93.0836  1.86233585 85252",
            "SatelliteNumber": "38250",
            "Classification": "U",
            "LaunchYear": "12",
            "LaunchNumber": "018",
            "PieceOfLaunch": "A",
            "EpochYear": "24",
            "EpochDay": 325.18585057,
            "FirstDerivativeMeanMotion": -7.6e-07,
            "SecondDerivativeMeanMotion": "00000+0",
            "BSTAR": "00000+0",
            "SetNumber": "999",
            "Inclination": 56.2287,
            "RAAN": 324.1413,
            "Eccentricity": 0.0025513,
            "ArgumentOfPerigee": 266.6332,
            "MeanAnomaly": 93.0836,
            "MeanMotion": 1.86233585,
            "RevolutionNumber": "8525"
        },
        {
            "Name": "BEIDOU-2 M4 (C12)",
            "Line1": "1 38251U 12018B   24325.11629750 -.00000076  00000+0  00000+0 0  9990",
            "Line2": "2 38251  56.1340 323.4036 0016416 268.8007  91.0190  1.86232014 85257",
            "SatelliteNumber": "38251",
            "Classification": "U",
            "LaunchYear": "12",
            "LaunchNumber": "018",
            "PieceOfLaunch": "B",
            "EpochYear": "24",
            "EpochDay": 325.1162975,
            "FirstDerivativeMeanMotion": -7.6e-07,
            "SecondDerivativeMeanMotion": "00000+0",
            "BSTAR": "00000+0",
            "SetNumber": "999",
            "Inclination": 56.134,
            "RAAN": 323.4036,
            "Eccentricity": 0.0016416,
            "ArgumentOfPerigee": 268.8007,
            "MeanAnomaly": 91.019,
            "MeanMotion": 1.86232014,
            "RevolutionNumber": "8525"
        },
        {
            "Name": "BEIDOU-2 M6 (C14)",
            "Line1": "1 38775U 12050B   24325.36289748 -.00000019  00000+0  00000+0 0  9990",
            "Line2": "2 38775  56.0436  81.9495 0010607 342.1759  17.7687  1.86230950 82625",
            "SatelliteNumber": "38775",
            "Classification": "U",
            "LaunchYear": "12",
            "LaunchNumber": "050",
            "PieceOfLaunch": "B",
            "EpochYear": "24",
            "EpochDay": 325.36289748,
            "FirstDerivativeMeanMotion": -1.9e-07,
            "SecondDerivativeMeanMotion": "00000+0",
            "BSTAR": "00000+0",
            "SetNumber": "999",
            "Inclination": 56.0436,
            "RAAN": 81.9495,
            "Eccentricity": 0.0010607,
            "ArgumentOfPerigee": 342.1759,
            "MeanAnomaly": 17.7687,
            "MeanMotion": 1.8623095,
            "RevolutionNumber": "8262"
        }
    ]
}